{"type": "FeatureCollection", "features": [ {"type": "Feature", "properties": {"norad_id": 37435, "name": "FENGYUN 1C DEB", "group": "fengyun-1c-debris", "lat": 60.41439180956436, "lon": 8.192598255045715, "alt_km": 792.4025430005895, "timestamp": "2025-12-13T10:41:26.055450+00:00", "meta": {"OBJECT_NAME": "FENGYUN 1C DEB", "OBJECT_ID": "1999-025EHD", "EPOCH": "2025-12-09T08:28:59.535840", "MEAN_MOTION": 14.22339891, "ECCENTRICITY": 0.00404486, "INCLINATION": 98.648, "RA_OF_ASC_NODE": 19.7275, "ARG_OF_PERICENTER": 24.2253, "MEAN_ANOMALY": 336.0816, "EPHEMERIS_TYPE": 0, "CLASSIFICATION_TYPE": "U", "NORAD_CAT_ID": 37435, "ELEMENT_SET_NO": 999, "REV_AT_EPOCH": 88891, "BSTAR": 0.0015347361, "MEAN_MOTION_DOT": 3.4e-05, "MEAN_MOTION_DDOT": 0}, "tle": {"line1": "1 37435U 99025EHD 25343.35346685  .00003400  00000+0  15347-2 0  9992", "line2": "2 37435  98.6480  19.7275 0040448  24.2253 336.0816 14.22339891888911"}}, "geometry": {"type": "Point", "coordinates": [8.192598255045715, 60.41439180956436]}}, {"type": "Feature", "properties": {"norad_id": 37436, "name": "FENGYUN 1C DEB", "group": "fengyun-1c-debris", "lat": 71.10490611455315, "lon": -110.70092971415893, "alt_km": 831.4456012354776, "timestamp": "2025-12-13T10:41:26.055461+00:00", "meta": {"OBJECT_NAME": "FENGYUN 1C DEB", "OBJECT_ID": "1999-025EHE", "EPOCH": "2025-12-08T08:57:07.720992", "MEAN_MOTION": 14.06336267, "ECCENTRICITY": 0.00596162, "INCLINATION": 98.9375, "RA_OF_ASC_NODE": 36.9205, "ARG_OF_PERICENTER": 160.2305, "MEAN_ANOMALY": 200.1192, "EPHEMERIS_TYPE": 0, "CLASSIFICATION_TYPE": "U", "NORAD_CAT_ID": 37436, "ELEMENT_SET_NO": 999, "REV_AT_EPOCH": 63937, "BSTAR": 0.0011550832, "MEAN_MOTION_DOT": 1.893e-05, "MEAN_MOTION_DDOT": 0}, "tle": {"line1": "1 37436U 99025EHE 25342.37300603  .00001893  00000+0  11551-2 0  9991", "line2": "2 37436  98.9375  36.9205 0059616 160.2305 200.1192 14.06336267639376"}}, "geometry": {"type": "Point", "coordinates": [-110.70092971415893, 71.10490611455315]}}, {"type": "Feature", "properties": {"norad_id": 37437, "name": "FENGYUN 1C DEB", "group": "fengyun-1c-debris", "lat": 56.089574105170215, "lon": -33.684990315346255, "alt_km": 743.638480641458, "timestamp": "2025-12-13T10:41:26.055471+00:00", "meta": {"OBJECT_NAME": "FENGYUN 1C DEB", "OBJECT_ID": "1999-025EHF", "EPOCH": "2025-11-30T18:36:25.322976", "MEAN_MOTION": 14.18810149, "ECCENTRICITY": 0.0113368, "INCLINATION": 98.5859, "RA_OF_ASC_NODE": 327.0314, "ARG_OF_PERICENTER": 82.7284, "MEAN_ANOMALY": 94.5607, "EPHEMERIS_TYPE": 0, "CLASSIFICATION_TYPE": "U", "NORAD_CAT_ID": 37437, "ELEMENT_SET_NO": 999, "REV_AT_EPOCH": 63821, "BSTAR": 0.0004989187, "MEAN_MOTION_DOT": 1.064e-05, "MEAN_MOTION_DDOT": 0}, "tle": {"line1": "1 37437U 99025EHF 25334.77529309  .00001064  00000+0  49892-3 0  9993", "line2": "2 37437  98.5859 327.0314 0113368  82.7284  94.5607 14.18810149638211"}}, "geometry": {"type": "Point", "coordinates": [-33.684990315346255, 56.089574105170215]}}, {"type": "Feature", "properties": {"norad_id": 37438, "name": "FENGYUN 1C DEB", "group": "fengyun-1c-debris", "lat": 65.7904892640397, "lon": 6.4092439754431165, "alt_km": 852.3659105793085, "timestamp": "2025-12-13T10:41:26.055481+00:00", "meta": {"OBJECT_NAME": "FENGYUN 1C DEB", "OBJECT_ID": "1999-025EHG", "EPOCH": "2025-12-09T07:58:39.452448", "MEAN_MOTION": 14.1550467, "ECCENTRICITY": 0.00287361, "INCLINATION": 98.7401, "RA_OF_ASC_NODE": 22.3854, "ARG_OF_PERICENTER": 230.9593, "MEAN_ANOMALY": 128.9023, "EPHEMERIS_TYPE": 0, "CLASSIFICATION_TYPE": "U", "NORAD_CAT_ID": 37438, "ELEMENT_SET_NO": 999, "REV_AT_EPOCH": 60087, "BSTAR": 0.001051415, "MEAN_MOTION_DOT": 2.019e-05, "MEAN_MOTION_DDOT": 0}, "tle": {"line1": "1 37438U 99025EHG 25343.33240107  .00002019  00000+0  10514-2 0  9991", "line2": "2 37438  98.7401  22.3854 0028736 230.9593 128.9023 14.15504670600876"}}, "geometry": {"type": "Point", "coordinates": [6.4092439754431165, 65.7904892640397]}}, {"type": "Feature", "properties": {"norad_id": 37441, "name": "FENGYUN 1C DEB", "group": "fengyun-1c-debris", "lat": 44.62928946721727, "lon": 23.35671744497291, "alt_km": 1126.3118146871748, "timestamp": "2025-12-13T10:41:26.055491+00:00", "meta": {"OBJECT_NAME": "FENGYUN 1C DEB", "OBJECT_ID": "1999-025EHK", "EPOCH": "2025-12-10T19:56:27.247488", "MEAN_MOTION": 13.14218168, "ECCENTRICITY": 0.05083236, "INCLINATION": 99.1462, "RA_OF_ASC_NODE": 191.9401, "ARG_OF_PERICENTER": 59.3859, "MEAN_ANOMALY": 305.6377, "EPHEMERIS_TYPE": 0, "CLASSIFICATION_TYPE": "U", "NORAD_CAT_ID": 37441, "ELEMENT_SET_NO": 999, "REV_AT_EPOCH": 82147, "BSTAR": 0.0021984754, "MEAN_MOTION_DOT": 1.529e-05, "MEAN_MOTION_DDOT": 0}, "tle": {"line1": "1 37441U 99025EHK 25344.83087092  .00001529  00000+0  21985-2 0  9992", "line2": "2 37441  99.1462 191.9401 0508323  59.3859 305.6377 13.14218168821475"}}, "geometry": {"type": "Point", "coordinates": [23.35671744497291, 44.62928946721727]}}, {"type": "Feature", "properties": {"norad_id": 37444, "name": "FENGYUN 1C DEB", "group": "fengyun-1c-debris", "lat": -65.66078434187612, "lon": 88.73062595512371, "alt_km": 634.7611534941689, "timestamp": "2025-12-13T10:41:26.055501+00:00", "meta": {"OBJECT_NAME": "FENGYUN 1C DEB", "OBJECT_ID": "1999-025EHN", "EPOCH": "2025-12-10T11:40:45.779808", "MEAN_MOTION": 14.48011697, "ECCENTRICITY": 0.0245044, "INCLINATION": 99.0829, "RA_OF_ASC_NODE": 64.839, "ARG_OF_PERICENTER": 355.8296, "MEAN_ANOMALY": 4.0849, "EPHEMERIS_TYPE": 0, "CLASSIFICATION_TYPE": "U", "NORAD_CAT_ID": 37444, "ELEMENT_SET_NO": 999, "REV_AT_EPOCH": 65118, "BSTAR": 0.00083100309, "MEAN_MOTION_DOT": 4.451e-05, "MEAN_MOTION_DDOT": 0}, "tle": {"line1": "1 37444U 99025EHN 25344.48664097  .00004451  00000+0  83100-3 0  9997", "line2": "2 37444  99.0829  64.8390 0245044 355.8296   4.0849 14.48011697651185"}}, "geometry": {"type": "Point", "coordinates": [88.73062595512371, -65.66078434187612]}}, {"type": "Feature", "properties": {"norad_id": 37448, "name": "FENGYUN 1C DEB", "group": "fengyun-1c-debris", "lat": 12.50566231932262, "lon": 49.96767220971406, "alt_km": 775.4919589212714, "timestamp": "2025-12-13T10:41:26.055511+00:00", "meta": {"OBJECT_NAME": "FENGYUN 1C DEB", "OBJECT_ID": "1999-025EHS", "EPOCH": "2025-12-12T22:30:50.536224", "MEAN_MOTION": 13.87086269, "ECCENTRICITY": 0.0305972, "INCLINATION": 99.321, "RA_OF_ASC_NODE": 51.5487, "ARG_OF_PERICENTER": 58.0944, "MEAN_ANOMALY": 304.9591, "EPHEMERIS_TYPE": 0, "CLASSIFICATION_TYPE": "U", "NORAD_CAT_ID": 37448, "ELEMENT_SET_NO": 999, "REV_AT_EPOCH": 62378, "BSTAR": 0.0018582025, "MEAN_MOTION_DOT": 3.112e-05, "MEAN_MOTION_DDOT": 0}, "tle": {"line1": "1 37448U 99025EHS 25346.93808491  .00003112  00000+0  18582-2 0  9995", "line2": "2 37448  99.3210  51.5487 0305972  58.0944 304.9591 13.87086269623785"}}, "geometry": {"type": "Point", "coordinates": [49.96767220971406, 12.50566231932262]}}, {"type": "Feature", "properties": {"norad_id": 37460, "name": "FENGYUN 1C DEB", "group": "fengyun-1c-debris", "lat": 79.98956952001173, "lon": 106.71078025060243, "alt_km": 761.7698529203917, "timestamp": "2025-12-13T10:41:26.055521+00:00", "meta": {"OBJECT_NAME": "FENGYUN 1C DEB", "OBJECT_ID": "1999-025EJE", "EPOCH": "2025-12-08T10:53:05.307360", "MEAN_MOTION": 14.47840336, "ECCENTRICITY": 0.00565903, "INCLINATION": 98.3779, "RA_OF_ASC_NODE": 158.3686, "ARG_OF_PERICENTER": 303.3518, "MEAN_ANOMALY": 56.2265, "EPHEMERIS_TYPE": 0, "CLASSIFICATION_TYPE": "U", "NORAD_CAT_ID": 37460, "ELEMENT_SET_NO": 999, "REV_AT_EPOCH": 82427, "BSTAR": 0.0027403859, "MEAN_MOTION_DOT": 0.00010316, "MEAN_MOTION_DDOT": 0}, "tle": {"line1": "1 37460U 99025EJE 25342.45353365  .00010316  00000+0  27404-2 0  9994", "line2": "2 37460  98.3779 158.3686 0056590 303.3518  56.2265 14.47840336824279"}}, "geometry": {"type": "Point", "coordinates": [106.71078025060243, 79.98956952001173]}}, {"type": "Feature", "properties": {"norad_id": 37461, "name": "FENGYUN 1C DEB", "group": "fengyun-1c-debris", "lat": 63.621767158213224, "lon": 76.09939176040038, "alt_km": 1769.4239436381285, "timestamp": "2025-12-13T10:41:26.055531+00:00", "meta": {"OBJECT_NAME": "FENGYUN 1C DEB", "OBJECT_ID": "1999-025EJF", "EPOCH": "2025-11-27T22:25:56.122176", "MEAN_MOTION": 12.7907076, "ECCENTRICITY": 0.0667413, "INCLINATION": 99.8664, "RA_OF_ASC_NODE": 221.8984, "ARG_OF_PERICENTER": 359.7811, "MEAN_ANOMALY": 0.291, "EPHEMERIS_TYPE": 0, "CLASSIFICATION_TYPE": "U", "NORAD_CAT_ID": 37461, "ELEMENT_SET_NO": 999, "REV_AT_EPOCH": 51845, "BSTAR": 0.0053613, "MEAN_MOTION_DOT": 3.048e-05, "MEAN_MOTION_DDOT": 0}, "tle": {"line1": "1 37461U 99025EJF 25331.93467734  .00003048  00000+0  53613-2 0  9997", "line2": "2 37461  99.8664 221.8984 0667413 359.7811   0.2910 12.79070760518454"}}, "geometry": {"type": "Point", "coordinates": [76.09939176040038, 63.621767158213224]}}, {"type": "Feature", "properties": {"norad_id": 37464, "name": "FENGYUN 1C DEB", "group": "fengyun-1c-debris", "lat": 22.91563732019013, "lon": -93.74844499096808, "alt_km": 1080.7850393793315, "timestamp": "2025-12-13T10:41:26.055541+00:00", "meta": {"OBJECT_NAME": "FENGYUN 1C DEB", "OBJECT_ID": "1999-025EJJ", "EPOCH": "2025-12-10T23:44:31.758144", "MEAN_MOTION": 13.46881559, "ECCENTRICITY": 0.04521033, "INCLINATION": 102.707, "RA_OF_ASC_NODE": 268.6078, "ARG_OF_PERICENTER": 121.217, "MEAN_ANOMALY": 243.4074, "EPHEMERIS_TYPE": 0, "CLASSIFICATION_TYPE": "U", "NORAD_CAT_ID": 37464, "ELEMENT_SET_NO": 999, "REV_AT_EPOCH": 60898, "BSTAR": 0.0032846368, "MEAN_MOTION_DOT": 3.656e-05, "MEAN_MOTION_DDOT": 0}, "tle": {"line1": "1 37464U 99025EJJ 25344.98925646  .00003656  00000+0  32846-2 0  9990", "line2": "2 37464 102.7070 268.6078 0452103 121.2170 243.4074 13.46881559608984"}}, "geometry": {"type": "Point", "coordinates": [-93.74844499096808, 22.91563732019013]}}]}